{
  "type": "FeatureCollection",
  "features": [
    {
      "type": "Feature",
      "properties": {
        "norad_id": 38091,
        "name": "BEIDOU-2 G5 (C05)",
        "group": "gnss",
        "lat": -2.889427789230683,
        "lon": 1.9178602129041211,
        "alt_km": 35763.21117577713,
        "timestamp": "2025-12-10T14:53:37.338246+00:00",
        "meta_object_name": "BEIDOU-2 G5 (C05)",
        "meta_object_id": "2012-008A",
        "meta_epoch": "2025-12-09T21:51:38.600352",
        "meta_mean_motion": 1.00274428,
        "meta_eccentricity": 0.00125512,
        "meta_inclination": 3.1022,
        "meta_ra_of_asc_node": 70.7135,
        "meta_arg_of_pericenter": 226.4044,
        "meta_mean_anomaly": 168.4397,
        "meta_ephemeris_type": 0,
        "meta_classification_type": "U",
        "meta_norad_cat_id": 38091,
        "meta_element_set_no": 999,
        "meta_rev_at_epoch": 5047,
        "meta_bstar": 0,
        "meta_mean_motion_dot": 5.9e-07,
        "meta_mean_motion_ddot": 0,
        "tle_line1": "1 38091U 12008A   25343.91086343  .00000059  00000+0  00000+0 0  9995",
        "tle_line2": "2 38091   3.1022  70.7135 0012551 226.4044 168.4397  1.00274428 50472"
      },
      "geometry": {
        "type": "Point",
        "coordinates": [
          1.9178602129041211,
          -2.889427789230683
        ]
      }
    },
    {
      "type": "Feature",
      "properties": {
        "norad_id": 38250,
        "name": "BEIDOU-2 M3 (C11)",
        "group": "gnss",
        "lat": -48.31660424641,
        "lon": -98.23098834018465,
        "alt_km": 21470.165316123872,
        "timestamp": "2025-12-10T14:53:37.338258+00:00",
        "meta_object_name": "BEIDOU-2 M3 (C11)",
        "meta_object_id": "2012-018A",
        "meta_epoch": "2025-12-09T02:31:53.071968",
        "meta_mean_motion": 1.86229533,
        "meta_eccentricity": 0.00244707,
        "meta_inclination": 55.9232,
        "meta_ra_of_asc_node": 311.2798,
        "meta_arg_of_pericenter": 273.7022,
        "meta_mean_anomaly": 86.0063,
        "meta_ephemeris_type": 0,
        "meta_classification_type": "U",
        "meta_norad_cat_id": 38250,
        "meta_element_set_no": 999,
        "meta_rev_at_epoch": 9240,
        "meta_bstar": 0,
        "meta_mean_motion_dot": -7.5e-07,
        "meta_mean_motion_ddot": 0,
        "tle_line1": "1 38250U 12018A   25343.10547537 -.00000075  00000+0  00000+0 0  9990",
        "tle_line2": "2 38250  55.9232 311.2798 0024470 273.7022  86.0063  1.86229533 92404"
      },
      "geometry": {
        "type": "Point",
        "coordinates": [
          -98.23098834018465,
          -48.31660424641
        ]
      }
    },
    {
      "type": "Feature",
      "properties": {
        "norad_id": 38251,
        "name": "BEIDOU-2 M4 (C12)",
        "group": "gnss",
        "lat": -15.362957209985082,
        "lon": -60.31147737642104,
        "alt_km": 21511.565391580105,
        "timestamp": "2025-12-10T14:53:37.338268+00:00",
        "meta_object_name": "BEIDOU-2 M4 (C12)",
        "meta_object_id": "2012-018B",
        "meta_epoch": "2025-12-09T00:54:02.015712",
        "meta_mean_motion": 1.86229239,
        "meta_eccentricity": 0.001562,
        "meta_inclination": 55.8247,
        "meta_ra_of_asc_node": 310.5113,
        "meta_arg_of_pericenter": 276.8164,
        "meta_mean_anomaly": 82.9941,
        "meta_ephemeris_type": 0,
        "meta_classification_type": "U",
        "meta_norad_cat_id": 38251,
        "meta_element_set_no": 999,
        "meta_rev_at_epoch": 9240,
        "meta_bstar": 0,
        "meta_mean_motion_dot": -7.4e-07,
        "meta_mean_motion_ddot": 0,
        "tle_line1": "1 38251U 12018B   25343.03752333 -.00000074  00000+0  00000+0 0  9994",
        "tle_line2": "2 38251  55.8247 310.5113 0015620 276.8164  82.9941  1.86229239 92404"
      },
      "geometry": {
        "type": "Point",
        "coordinates": [
          -60.31147737642104,
          -15.362957209985082
        ]
      }
    },
    {
      "type": "Feature",
      "properties": {
        "norad_id": 38652,
        "name": "SES-5 (EGNOS/PRN 136)",
        "group": "gnss",
        "lat": -0.005276150647991955,
        "lon": -52.000325054136596,
        "alt_km": 35780.70981810908,
        "timestamp": "2025-12-10T14:53:37.338278+00:00",
        "meta_object_name": "SES-5 (EGNOS/PRN 136)",
        "meta_object_id": "2012-036A",
        "meta_epoch": "2025-12-10T04:08:38.649120",
        "meta_mean_motion": 1.00271679,
        "meta_eccentricity": 0.00020987,
        "meta_inclination": 0.0577,
        "meta_ra_of_asc_node": 305.0193,
        "meta_arg_of_pericenter": 310.1698,
        "meta_mean_anomaly": 251.1088,
        "meta_ephemeris_type": 0,
        "meta_classification_type": "U",
        "meta_norad_cat_id": 38652,
        "meta_element_set_no": 999,
        "meta_rev_at_epoch": 4257,
        "meta_bstar": 0,
        "meta_mean_motion_dot": 3.7e-07,
        "meta_mean_motion_ddot": 0,
        "tle_line1": "1 38652U 12036A   25344.17266955  .00000037  00000+0  00000+0 0  9993",
        "tle_line2": "2 38652   0.0577 305.0193 0002098 310.1698 251.1088  1.00271679 42579"
      },
      "geometry": {
        "type": "Point",
        "coordinates": [
          -52.000325054136596,
          -0.005276150647991955
        ]
      }
    },
    {
      "type": "Feature",
      "properties": {
        "norad_id": 38775,
        "name": "BEIDOU-2 M6 (C14)",
        "group": "gnss",
        "lat": 4.03733719599756,
        "lon": -113.54204967683582,
        "alt_km": 21558.32404753646,
        "timestamp": "2025-12-10T14:53:37.338289+00:00",
        "meta_object_name": "BEIDOU-2 M6 (C14)",
        "meta_object_id": "2012-050B",
        "meta_epoch": "2025-12-09T06:50:59.454240",
        "meta_mean_motion": 1.86230769,
        "meta_eccentricity": 0.00110803,
        "meta_inclination": 56.3755,
        "meta_ra_of_asc_node": 69.1821,
        "meta_arg_of_pericenter": 345.0946,
        "meta_mean_anomaly": 14.8952,
        "meta_ephemeris_type": 0,
        "meta_classification_type": "U",
        "meta_norad_cat_id": 38775,
        "meta_element_set_no": 999,
        "meta_rev_at_epoch": 8977,
        "meta_bstar": 0,
        "meta_mean_motion_dot": -4.8e-07,
        "meta_mean_motion_ddot": 0,
        "tle_line1": "1 38775U 12050B   25343.28541035 -.00000048  00000+0  00000+0 0  9994",
        "tle_line2": "2 38775  56.3755  69.1821 0011080 345.0946  14.8952  1.86230769 89773"
      },
      "geometry": {
        "type": "Point",
        "coordinates": [
          -113.54204967683582,
          4.03733719599756
        ]
      }
    },
    {
      "type": "Feature",
      "properties": {
        "norad_id": 38779,
        "name": "GSAT-10 (GAGAN/PRN 128)",
        "group": "gnss",
        "lat": 0.0556460633722744,
        "lon": 25.965464660058736,
        "alt_km": 35788.10735164618,
        "timestamp": "2025-12-10T14:53:37.338301+00:00",
        "meta_object_name": "GSAT-10 (GAGAN/PRN 128)",
        "meta_object_id": "2012-051B",
        "meta_epoch": "2025-12-10T00:35:38.776704",
        "meta_mean_motion": 1.00273767,
        "meta_eccentricity": 0.00023131,
        "meta_inclination": 0.0553,
        "meta_ra_of_asc_node": 262.8411,
        "meta_arg_of_pericenter": 228.584,
        "meta_mean_anomaly": 39.4837,
        "meta_ephemeris_type": 0,
        "meta_classification_type": "U",
        "meta_norad_cat_id": 38779,
        "meta_element_set_no": 999,
        "meta_rev_at_epoch": 4820,
        "meta_bstar": 0,
        "meta_mean_motion_dot": -1.62e-06,
        "meta_mean_motion_ddot": 0,
        "tle_line1": "1 38779U 12051B   25344.02475436 -.00000162  00000+0  00000+0 0  9990",
        "tle_line2": "2 38779   0.0553 262.8411 0002313 228.5840  39.4837  1.00273767 48202"
      },
      "geometry": {
        "type": "Point",
        "coordinates": [
          25.965464660058736,
          0.0556460633722744
        ]
      }
    },
    {
      "type": "Feature",
      "properties": {
        "norad_id": 38833,
        "name": "GPS BIIF-3  (PRN 24)",
        "group": "gnss",
        "lat": -10.26795673789921,
        "lon": -20.989727855180085,
        "alt_km": 20470.929165153033,
        "timestamp": "2025-12-10T14:53:37.338311+00:00",
        "meta_object_name": "GPS BIIF-3  (PRN 24)",
        "meta_object_id": "2012-053A",
        "meta_epoch": "2025-12-09T20:38:00.573504",
        "meta_mean_motion": 2.00564945,
        "meta_eccentricity": 0.0175755,
        "meta_inclination": 53.557,
        "meta_ra_of_asc_node": 151.3565,
        "meta_arg_of_pericenter": 63.953,
        "meta_mean_anomaly": 297.8432,
        "meta_ephemeris_type": 0,
        "meta_classification_type": "U",
        "meta_norad_cat_id": 38833,
        "meta_element_set_no": 999,
        "meta_rev_at_epoch": 9564,
        "meta_bstar": 0,
        "meta_mean_motion_dot": 6.8e-07,
        "meta_mean_motion_ddot": 0,
        "tle_line1": "1 38833U 12053A   25343.85972886  .00000068  00000+0  00000+0 0  9998",
        "tle_line2": "2 38833  53.5570 151.3565 0175755  63.9530 297.8432  2.00564945 95648"
      },
      "geometry": {
        "type": "Point",
        "coordinates": [
          -20.989727855180085,
          -10.26795673789921
        ]
      }
    }
  ]
}